ENDUROSAT ONE           
1 43551U 98067NZ  20225.75366396  .00078966  00000-0  28363-3 0  9995
2 43551  51.6321 345.2392 0005570 325.3904  34.6738 15.88020322119305
EQUISAT                 
1 43552U 98067PA  20225.80072470  .00033622  00000-0  20289-3 0  9998
2 43552  51.6316 358.5417 0004792 316.8162  43.2462 15.77309871119094
AEROCUBE 12A            
1 43556U 18046C   20225.35280213  .00000828  00000-0  40494-4 0  9990
2 43556  51.6410 196.9396 0008510 133.4271 226.7419 15.29939644115932
AEROCUBE 12B            
1 43557U 18046D   20225.81625350  .00000569  00000-0  31949-4 0  9994
2 43557  51.6412 195.5197 0008576 134.4827 225.6855 15.29641980115945
UITMSAT-1               
1 43589U 98067PD  20225.57576379  .00048292  00000-0  24001-3 0  9994
2 43589  51.6341 356.0850 0004468 330.5398  29.5352 15.81433710114848
MAYA-1                  
1 43590U 98067PE  20224.11514099  .00053892  00000-0  26897-3 0  9993
2 43590  51.6293   3.5494 0004214 319.5377  40.5311 15.81296927114549
BHUTAN-1                
1 43591U 98067PF  20225.72403261  .00048668  00000-0  23910-3 0  9998
2 43591  51.6355 354.9083 0004650 331.0986  28.9758 15.81679254114807
SIRIUSSAT-1             
1 43595U 98067PG  20225.88641063  .00039768  00000-0  23033-3 0  9990
2 43595  51.6289   0.4319 0002780 311.8636  48.2127 15.78157852113920
SIRIUSSAT-2             
1 43596U 98067PH  20225.88879491  .00038373  00000-0  22347-3 0  9997
2 43596  51.6283   1.2730 0002764 308.4146  51.6606 15.78052328113912
TANUSHA-3               
1 43597U 98067PJ  20225.88004108  .00226027  32321-4  44743-3 0  9997
2 43597  51.6240 341.2797 0008496 331.0701  28.9837 15.99449114114171
SURFSAT                 
1 43614U 18070B   20225.83422608  .00002664  00000-0  67946-4 0  9992
2 43614  93.0239 177.9046 0017802 114.6654 245.6456 15.39425232107157
CP7 (DAVE)              
1 43615U 18070C   20225.80618053  .00002428  00000-0  62277-4 0  9991
2 43615  93.0242 177.8800 0017951 114.4574 245.8555 15.39266743107144
ELFIN-B                 
1 43616U 18070D   20225.86044291  .00003250  00000-0  79388-4 0  9990
2 43616  93.0202 177.8640 0018340 115.2275 245.0884 15.40719555107203
ELFIN-A                 
1 43617U 18070E   20225.62684906  .00003810  00000-0  92424-4 0  9996
2 43617  93.0253 178.3262 0017798 113.1234 247.1899 15.40931453107172
CUBEBEL-1 (BSUSAT-1)    
1 43666U 18083E   20225.86431885  .00000846  00000-0  44438-4 0  9994
2 43666  97.4858 251.7659 0015320 158.3183  13.7404 15.18352808 99179
CICERO 10               
1 43690U 18088A   20225.90259246  .00000822  00000-0  35859-4 0  9991
2 43690  85.0364  41.1167 0017145 101.3589 258.9579 15.20302603 97334
IRVINE01                
1 43693U 18088D   20225.73565469  .00002037  00000-0  84270-4 0  9993
2 43693  85.0340  39.7433 0020047  84.9456 275.4074 15.23086943 97416
PROXIMA I               
1 43694U 18088E   20225.89586687  .00000874  00000-0  36214-4 0  9998
2 43694  85.0309  39.5107 0021435  77.4635 282.9003 15.22054687 97432
PROXIMA II              
1 43696U 18088G   20225.89402296  .00000871  00000-0  36072-4 0  9992
2 43696  85.0310  39.5162 0021473  77.4299 282.9343 15.22056222 97428
FACSAT-1                
1 43721U 18096C   20225.88378224  .00001176  00000-0  46572-4 0  9997
2 43721  97.4178 299.1489 0015827 284.6847  75.2638 15.27354839 95001
CENTAURI-2              
1 43722U 18096D   20225.75843904  .00001508  00000-0  57936-4 0  9991
2 43722  97.4191 299.3554 0015804 284.6979  75.2508 15.27918499 94994
INNOSAT-2               
1 43738U 18096V   20225.88503435  .00002041  00000-0  71283-4 0  9998
2 43738  97.4211 301.6897 0021534 290.2834  69.6093 15.30564471 95168
SIRION PATHFINDER-2     
1 43759U 18099B   20225.92335073 -.00000069  00000-0 -10227-5 0  9992
2 43759  97.7020 296.6117 0014142   0.6591 359.4646 14.95298200 92378
CORVUS-BC 4             
1 43767U 18099K   20225.81853094  .00000388  00000-0  40917-4 0  9997
2 43767  97.7003 295.8582 0011808   7.1750 352.9637 14.94745535 92320
MOVE-II                 
1 43780U 18099Y   20225.86448770  .00000399  00000-0  41263-4 0  9995
2 43780  97.7030 296.5027 0013570  12.8929 347.2636 14.95447094 92344
SPACEBEE-7              
1 43816U 18099BL  20225.65910135  .00000125  00000-0  16418-4 0  9992
2 43816  97.7043 296.7267 0013097 357.5296   2.5858 14.95732186 91891
SPACEBEE-5              
1 43817U 18099BM  20225.85599822  .00000449  00000-0  44734-4 0  9992
2 43817  97.7098 297.4596 0012714 356.7817   3.3320 14.96397781 91948
SPACEBEE-6              
1 43818U 18099BN  20225.74886819  .00000888  00000-0  84338-4 0  9997
2 43818  97.7062 296.9821 0012892 358.1622   1.9550 14.95941079 92069
SHIELDS 1               
1 43850U 18104B   20225.76689936  .00000398  00000-0  15879-4 0  9993
2 43850  85.0315 138.1378 0013331 216.2985 143.7353 15.21429233 92031
STF-1                   
1 43852U 18104D   20225.84862070  .00000906  00000-0  38593-4 0  9999
2 43852  85.0358 138.6607 0012526 232.4590 127.5515 15.21379465 92027
ZACUBE-2                
1 43907U 18111AH  20225.89643549  .00000349  00000-0  16915-4 0  9996
2 43907  97.2596 123.9453 0020097 307.4151  52.5257 15.24638102 90613
LUME 1                  
1 43908U 18111AJ  20225.86880489  .00000853  00000-0  36697-4 0  9999
2 43908  97.2596 124.1292 0019797 307.0318  52.9109 15.25134771 90629
AOBA VELOX-IV           
1 43940U 19003J   20225.87052372  .00001578  00000-0  65162-4 0  9993
2 43940  97.2237 275.2044 0024407  27.8726 332.3814 15.25187686 87249
CATSAT-2                
1 44029U 98067PV  20225.72616324  .00019108  00000-0  18157-3 0  9995
2 44029  51.6392  30.5007 0003420 304.3587  55.7086 15.66891816 87345
DELPHINI                
1 44030U 98067PW  20225.83110241  .00020570  00000-0  18551-3 0  9999
2 44030  51.6344  28.0576 0003472 300.4745  59.5908 15.68131163 87357
UNITE                   
1 44031U 98067PX  20225.74626352  .00009418  00000-0  11066-3 0  9997
2 44031  51.6383  38.0978 0002434 290.7154  69.3579 15.62223844 87210
CATSAT-1                
1 44033U 98067PZ  20225.85351338  .00019612  00000-0  18605-3 0  9993
2 44033  51.6392  29.8587 0003304 304.8634  55.2052 15.66913426 87275
RAAVANA-1               
1 44329U 98067QE  20225.88238138  .00010027  00000-0  13333-3 0  9990
2 44329  51.6397  51.0741 0005457 210.6965 149.3709 15.58851513 65807
UGUISU                  
1 44330U 98067QF  20225.70585072  .00009371  00000-0  12552-3 0  9997
2 44330  51.6378  52.1268 0005455 209.1545 150.9144 15.58749696 65752
NEPALISAT-1             
1 44331U 98067QG  20225.81005733  .00009918  00000-0  13189-3 0  9995
2 44331  51.6378  51.3253 0005448 213.3155 146.7496 15.58865406 65788
SPOOQY-1                
1 44332U 98067QH  20225.81716558  .00009344  00000-0  12518-3 0  9998
2 44332  51.6382  51.3755 0004516 214.8141 145.2556 15.58750381 65749
SPACEBEE-9              
1 44370U 19037F   20225.83436412  .00007945  00000-0  17684-3 0  9994
2 44370  45.0055 160.3462 0012381 160.2978 199.8392 15.44141120 63316
SPACEBEE-8              
1 44371U 19037G   20225.87021397  .00016266  00000-0  29840-3 0  9994
2 44371  45.0057 152.1840 0011048 163.6760 196.4489 15.49090199 63418
IOD-1 GEMS              
1 44385U 98067QK  20225.90149194  .00016938  00000-0  19766-3 0  9991
2 44385  51.6400  48.2492 0002127 172.7362 187.3663 15.61752439 63311
MOVE-IIB                
1 44398U 19038N   20225.85730835  .00001024  00000-0  62385-4 0  9994
2 44398  97.5400 186.3852 0023609 295.4671  64.4117 15.12429422 61105
SONATE                  
1 44400U 19038Q   20225.84016663  .00000486  00000-0  31987-4 0  9998
2 44400  97.5440 186.3793 0023666 293.8689  66.0061 15.12004741 61098
LUCKY-7                 
1 44406U 19038W   20225.84583070  .00000551  00000-0  35502-4 0  9995
2 44406  97.5434 186.5076 0023069 293.4586  66.4220 15.12278530 61092
BEESAT 9                
1 44412U 19038AC  20225.57654949  .00000759  00000-0  47380-4 0  9993
2 44412  97.5425 186.2234 0021237 300.8505  59.0636 15.12376767 60753
JAISAT-1                
1 44419U 19038F   20225.57891780  .00000740  00000-0  45692-4 0  9990
2 44419  97.5426 186.5326 0020079 299.9291  59.9946 15.12860410 61082
SWIATOWID               
1 44426U 98067QL  20225.90508428  .00022601  00000-0  24967-3 0  9999
2 44426  51.6415  47.1916 0002842 169.8600 333.4822 15.62954681 63335
KRAKSAT                 
1 44427U 98067QM  20225.93039874  .00007485  00000-0  10972-3 0  9991
2 44427  51.6434  54.8851 0003490 155.4081 347.8777 15.56655235 63271
VCC A                   
1 44428U 98067QN  20225.89873700  .00009089  00000-0  12458-3 0  9994
2 44428  51.6406  52.7297 0002493 178.3099 181.7902 15.58176884 63306
ENTRYSAT                
1 44429U 98067QP  20225.89331172  .00011718  00000-0  15175-3 0  9998
2 44429  51.6390  51.1588 0002288 171.7101 188.3930 15.59372127 63323
VCC C                   
1 44430U 98067QQ  20225.56423897  .00014955  00000-0  18165-3 0  9998
2 44430  51.6386  51.2189 0001977 192.8863 167.2080 15.60814201 62126
VCC B                   
1 44431U 98067QR  20225.89680283  .00009094  00000-0  12441-3 0  9998
2 44431  51.6392  52.6965 0002665 178.4524 181.6477 15.58227390 63248
ATL-1                   
1 44830U 19084G   20225.70137514  .00087893  46111-5  35784-3 0  9993
2 44830  96.9649  95.6204 0018485  25.8586 334.3605 15.85979109 39347
SMOG-P                  
1 44832U 19084J   20225.88139365  .00127505  77091-5  44943-3 0  9993
2 44832  96.9651  96.1394 0015924  23.9129 336.2881 15.88939593 39393
DUCHIFAT-3              
1 44854U 19089C   20225.84434758  .00000274  00000-0  28515-4 0  9994
2 44854  36.9642 125.0838 0007600 167.8103 192.2815 14.99100531 36766
EYESAT-NANO             
1 44877U 19092E   20225.47793613  .00000889  00000-0  48390-4 0  9995
2 44877  97.4567  47.8629 0013609 177.5232 182.6071 15.16916977 36086
